
STARLINK-37297
1 69151U 26111D   26170.25002315  .00038456  00000+0  69697-3 0  9992
2 69151  53.1603 142.2361 0001584  92.7149 289.8911 15.49272905  5884

STARLINK-37317
1 69152U 26111E   26170.25002315 -.02504256  00000+0 -53362-1 0  9993
2 69152  53.1601 142.0119 0001329  69.6723  63.3796 15.47914895  5885

STARLINK-37332
1 69150U 26111C   26170.20945847  .00032749  00000+0  59381-3 0  9990
2 69150  53.1610 143.4752 0000994  86.6629 273.4494 15.49337530  4551

STARLINK-37346
1 69149U 26111B   26170.24515288  .00032237  00000+0  58476-3 0  9990
2 69149  53.1598 142.9797 0001250  72.3854 287.7292 15.49334613  4569

STARLINK-37361
1 69134U 26110L   26170.10672674  .00018837  00000+0  58423-3 0  9993
2 69134  97.2827   6.4958 0002342  96.4147 263.7362 15.33450186  5903

STARLINK-37372
1 69135U 26110M   26170.25002315 -.03718921  00000+0 -12100+0 0  9993
2 69135  97.2854   6.6443 0001784  86.0443 358.2021 15.36118045  5986

STARLINK-37374
1 69153U 26111F   26170.22509737  .01453025  00000+0  23230-1 0  9996
2 69153  53.1591 143.5759 0003533 216.3701 143.7069 15.49879847  4554

STARLINK-37395
1 69148U 26111A   26170.25002315 -.00712777  00000+0 -12565-1 0  9995
2 69148  53.1607 142.1691 0001411  71.2415 345.2399 15.52365397  5885

STARLINK-37530
1 69131U 26110H   26170.04962983  .00017946  00000+0  55676-3 0  9995
2 69131  97.2857   6.4225 0001223  83.7174 276.4208 15.33451836  5897

STARLINK-37531
1 69136U 26110N   26170.29705754  .00010571  00000+0  32927-3 0  9999
2 69136  97.2857   6.6964 0001544  96.5709 263.5710 15.33449563  5930

STARLINK-37533
1 69130U 26110G   26169.98709678  .00022859  00000+0  70836-3 0  9999
2 69130  97.2846   6.3541 0001269 109.4057 250.7323 15.33439571  5884

STARLINK-37633
1 69133U 26110K   26170.25002315 -.00026124  00000+0 -80970-3 0  9999
2 69133  97.2854   6.6302 0001905 121.9924 293.5373 15.33442204  5981

STARLINK-37636
1 69143U 26110V   26170.08226409  .00010597  00000+0  32986-3 0  9992
2 69143  97.2852   6.5303 0001987  76.7405 283.4059 15.33468258  5909

STARLINK-37638
1 69144U 26110W   26170.27530422  .00010713  00000+0  33367-3 0  9991
2 69144  97.2852   6.7266 0001500  90.5271 269.6144 15.33445974  5930

STARLINK-37639
1 69146U 26110Y   26170.26987493  .00011667  00000+0  36291-3 0  9994
2 69146  97.2857   6.7344 0001422  79.0755 281.0648 15.33466137  5937

STARLINK-37653
1 69140U 26110S   26170.05577452  .00030268  00000+0  55573-3 0  9997
2 69140  97.2834   6.4124 0001744  87.6217 272.5234 15.49204677  5891

STARLINK-37654
1 69141U 26110T   26170.25002315 -.00013885  00000+0 -38276-3 0  9990
2 69141  97.2855   6.6684 0001247  87.1889  54.8047 15.36991124  5985

STARLINK-37655
1 69142U 26110U   26170.25002315 -.00016640  00000+0 -45944-3 0  9993
2 69142  97.2861   6.6820 0001202  91.4336  84.5420 15.36983277  5986

STARLINK-37657
1 69145U 26110X   26168.52679562  .00031248  00000+0  57347-3 0  9996
2 69145  97.2820   4.9711 0001302  96.0721 264.0679 15.49212420  5669

STARLINK-37658
1 69138U 26110Q   26170.11033326 -.00468023  00000+0 -93323-2 0  9998
2 69138  97.2847   6.4920 0005257  47.4696 312.6998 15.48519088  5903

STARLINK-37659
1 69139U 26110R   26170.05330379  .00036865  00000+0  67564-3 0  9992
2 69139  97.2841   6.4149 0000770 111.1586 248.9747 15.49218071  5893

STARLINK-37660
1 69132U 26110J   26170.25002315 -.00448208  00000+0 -13076-1 0  9990
2 69132  97.2854   6.6208 0001218  65.8701 326.2922 15.37150508  5982

STARLINK-37661
1 69147U 26110Z   26170.09846437  .00034752  00000+0  63734-3 0  9990
2 69147  97.2831   6.5059 0002256 103.9737 256.1765 15.49208706  5907

STARLINK-37662
1 69137U 26110P   26170.25002315 -.00027119  00000+0 -75115-3 0  9993
2 69137  97.2855   6.6474 0001145  87.9030   6.2287 15.36983256  5984

STARLINK-37706
1 69127U 26110D   26170.25899297  .00013559  00000+0  42155-3 0  9994
2 69127  97.2854   6.5961 0002369  94.0249 266.1265 15.33444783  5923

STARLINK-37715
1 69126U 26110C   26170.26171129  .00011086  00000+0  34514-3 0  9994
2 69126  97.2846   6.5914 0002116  89.0496 271.0990 15.33451460  5929

STARLINK-37720
1 69129U 26110F   26170.29136775  .00029647  00000+0  54432-3 0  9991
2 69129  97.2858   6.5478 0001154 101.4670 258.6711 15.49210599  5929

STARLINK-37722
1 69125U 26110B   26170.25002315 -.00021062  00000+0 -65215-3 0  9991
2 69125  97.2852   6.5972 0001808  72.4102 268.2047 15.33431084  6030

STARLINK-37723
1 69128U 26110E   26170.06050319  .00015283  00000+0  47471-3 0  9990
2 69128  97.2863   6.4070 0000849 122.6866 237.4459 15.33449400  5891

STARLINK-37726
1 69124U 26110A   26170.23556010  .00025024  00000+0  46002-3 0  9997
2 69124  97.2844   6.4718 0001505  82.7163 277.4259 15.49206842  5914
